[{"OBJECT_NAME":"STARLINK-34503","OBJECT_ID":"2025-129J","EPOCH":"2026-03-09T10:04:05.576736","MEAN_MOTION":14.98326836,"ECCENTRICITY":0.00034507,"INCLINATION":70.0009,"RA_OF_ASC_NODE":75.2643,"ARG_OF_PERICENTER":269.3596,"MEAN_ANOMALY":90.7168,"EPHEMERIS_TYPE":0,"CLASSIFICATION_TYPE":"U","NORAD_CAT_ID":64420,"ELEMENT_SET_NO":999,"REV_AT_EPOCH":4118,"BSTAR":0.00012019618,"MEAN_MOTION_DOT":1.341e-5,"MEAN_MOTION_DDOT":0},{"OBJECT_NAME":"ESSAIM-3","OBJECT_ID":"2004-049E","EPOCH":"2026-03-09T17:57:07.382304","MEAN_MOTION":14.96054296,"ECCENTRICITY":0.00013371,"INCLINATION":98.2193,"RA_OF_ASC_NODE":0.6383,"ARG_OF_PERICENTER":147.2664,"MEAN_ANOMALY":212.8639,"EPHEMERIS_TYPE":0,"CLASSIFICATION_TYPE":"U","NORAD_CAT_ID":28496,"ELEMENT_SET_NO":999,"REV_AT_EPOCH":14785,"BSTAR":0.00036464987,"MEAN_MOTION_DOT":4.033e-5,"MEAN_MOTION_DDOT":0}]
